FENGYUN 1C DEB          
1 37466U 99025EJL 17346.46623383  .00002290  00000-0  58946-3 0  9995
2 37466  99.1186 226.0006 0125615  27.7643 333.0178 14.46612331470644
